{
  "type": "FeatureCollection",
  "features": [
    {
      "type": "Feature",
      "properties": {
        "norad_id": 25590,
        "name": "COSMOS 2361",
        "group": "musson",
        "lat": -18.41083903760332,
        "lon": -24.90716992498412,
        "alt_km": 997.5205151688733,
        "timestamp": "2025-12-21T16:47:55.007999+00:00",
        "meta_object_name": "COSMOS 2361",
        "meta_object_id": "1998-076A",
        "meta_epoch": "2025-12-21T12:14:07.609056",
        "meta_mean_motion": 13.73218488,
        "meta_eccentricity": 0.00302,
        "meta_inclination": 82.9341,
        "meta_ra_of_asc_node": 337.5995,
        "meta_arg_of_pericenter": 240.1953,
        "meta_mean_anomaly": 241.6169,
        "meta_ephemeris_type": 0,
        "meta_classification_type": "U",
        "meta_norad_cat_id": 25590,
        "meta_element_set_no": 999,
        "meta_rev_at_epoch": 35231,
        "meta_bstar": 3.8356e-05,
        "meta_mean_motion_dot": 5e-07,
        "meta_mean_motion_ddot": 0,
        "tle_line1": "1 25590U 98076A   25355.50981029  .00000050  00000+0  38356-4 0  9998",
        "tle_line2": "2 25590  82.9341 337.5995 0030200 240.1953 241.6169 13.73218488352318"
      },
      "geometry": {
        "type": "Point",
        "coordinates": [
          -24.90716992498412,
          -18.41083903760332
        ]
      }
    },
    {
      "type": "Feature",
      "properties": {
        "norad_id": 26818,
        "name": "COSMOS 2378",
        "group": "musson",
        "lat": 80.22440582269618,
        "lon": 39.18478311143065,
        "alt_km": 980.0153426157649,
        "timestamp": "2025-12-21T16:47:55.008021+00:00",
        "meta_object_name": "COSMOS 2378",
        "meta_object_id": "2001-023A",
        "meta_epoch": "2025-12-21T11:40:53.662080",
        "meta_mean_motion": 13.74142657,
        "meta_eccentricity": 0.0032939,
        "meta_inclination": 82.927,
        "meta_ra_of_asc_node": 353.2385,
        "meta_arg_of_pericenter": 180.3149,
        "meta_mean_anomaly": 289.174,
        "meta_ephemeris_type": 0,
        "meta_classification_type": "U",
        "meta_norad_cat_id": 26818,
        "meta_element_set_no": 999,
        "meta_rev_at_epoch": 23043,
        "meta_bstar": 2.4373e-05,
        "meta_mean_motion_dot": 3.8e-07,
        "meta_mean_motion_ddot": 0,
        "tle_line1": "1 26818U 01023A   25355.48673220  .00000038  00000+0  24373-4 0  9996",
        "tle_line2": "2 26818  82.9270 353.2385 0032939 180.3149 289.1740 13.74142657230439"
      },
      "geometry": {
        "type": "Point",
        "coordinates": [
          39.18478311143065,
          80.22440582269618
        ]
      }
    },
    {
      "type": "Feature",
      "properties": {
        "norad_id": 27436,
        "name": "COSMOS 2389",
        "group": "musson",
        "lat": -37.12797456233605,
        "lon": -65.02298059547442,
        "alt_km": 977.5041196278898,
        "timestamp": "2025-12-21T16:47:55.008035+00:00",
        "meta_object_name": "COSMOS 2389",
        "meta_object_id": "2002-026A",
        "meta_epoch": "2025-12-21T05:18:49.493952",
        "meta_mean_motion": 13.75155469,
        "meta_eccentricity": 0.0047292,
        "meta_inclination": 82.951,
        "meta_ra_of_asc_node": 300.7059,
        "meta_arg_of_pericenter": 37.6336,
        "meta_mean_anomaly": 77.8383,
        "meta_ephemeris_type": 0,
        "meta_classification_type": "U",
        "meta_norad_cat_id": 27436,
        "meta_element_set_no": 999,
        "meta_rev_at_epoch": 18265,
        "meta_bstar": 3.7349e-05,
        "meta_mean_motion_dot": 5.1e-07,
        "meta_mean_motion_ddot": 0,
        "tle_line1": "1 27436U 02026A   25355.22140618  .00000051  00000+0  37349-4 0  9991",
        "tle_line2": "2 27436  82.9510 300.7059 0047292  37.6336  77.8383 13.75155469182659"
      },
      "geometry": {
        "type": "Point",
        "coordinates": [
          -65.02298059547442,
          -37.12797456233605
        ]
      }
    },
    {
      "type": "Feature",
      "properties": {
        "norad_id": 27818,
        "name": "COSMOS 2398",
        "group": "musson",
        "lat": -7.0609932767665375,
        "lon": 86.97417018947438,
        "alt_km": 998.5316844125391,
        "timestamp": "2025-12-21T16:47:55.008046+00:00",
        "meta_object_name": "COSMOS 2398",
        "meta_object_id": "2003-023A",
        "meta_epoch": "2025-12-21T07:43:49.370880",
        "meta_mean_motion": 13.72386557,
        "meta_eccentricity": 0.0032717,
        "meta_inclination": 82.9484,
        "meta_ra_of_asc_node": 266.3741,
        "meta_arg_of_pericenter": 88.927,
        "meta_mean_anomaly": 31.9834,
        "meta_ephemeris_type": 0,
        "meta_classification_type": "U",
        "meta_norad_cat_id": 27818,
        "meta_element_set_no": 999,
        "meta_rev_at_epoch": 12934,
        "meta_bstar": 5.7986e-05,
        "meta_mean_motion_dot": 6.9e-07,
        "meta_mean_motion_ddot": 0,
        "tle_line1": "1 27818U 03023A   25355.32209920  .00000069  00000+0  57986-4 0  9994",
        "tle_line2": "2 27818  82.9484 266.3741 0032717  88.9270  31.9834 13.72386557129340"
      },
      "geometry": {
        "type": "Point",
        "coordinates": [
          86.97417018947438,
          -7.0609932767665375
        ]
      }
    },
    {
      "type": "Feature",
      "properties": {
        "norad_id": 28380,
        "name": "COSMOS 2407",
        "group": "musson",
        "lat": 30.3599325389187,
        "lon": 22.10760903398189,
        "alt_km": 989.4470666133057,
        "timestamp": "2025-12-21T16:47:55.008081+00:00",
        "meta_object_name": "COSMOS 2407",
        "meta_object_id": "2004-028A",
        "meta_epoch": "2025-12-21T12:53:42.351072",
        "meta_mean_motion": 13.76314681,
        "meta_eccentricity": 0.0039921,
        "meta_inclination": 82.9597,
        "meta_ra_of_asc_node": 206.379,
        "meta_arg_of_pericenter": 30.8459,
        "meta_mean_anomaly": 32.6281,
        "meta_ephemeris_type": 0,
        "meta_classification_type": "U",
        "meta_norad_cat_id": 28380,
        "meta_element_set_no": 999,
        "meta_rev_at_epoch": 7544,
        "meta_bstar": 5.4185e-05,
        "meta_mean_motion_dot": 6.9e-07,
        "meta_mean_motion_ddot": 0,
        "tle_line1": "1 28380U 04028A   25355.53729573  .00000069  00000+0  54185-4 0  9997",
        "tle_line2": "2 28380  82.9597 206.3790 0039921  30.8459  32.6281 13.76314681 75445"
      },
      "geometry": {
        "type": "Point",
        "coordinates": [
          22.10760903398189,
          30.3599325389187
        ]
      }
    },
    {
      "type": "Feature",
      "properties": {
        "norad_id": 28521,
        "name": "COSMOS 2414",
        "group": "musson",
        "lat": 64.35604968450487,
        "lon": -167.17520301654733,
        "alt_km": 909.9959378313833,
        "timestamp": "2025-12-21T16:47:55.008107+00:00",
        "meta_object_name": "COSMOS 2414",
        "meta_object_id": "2005-002A",
        "meta_epoch": "2025-12-21T11:17:41.625024",
        "meta_mean_motion": 13.87904147,
        "meta_eccentricity": 0.004131,
        "meta_inclination": 82.9488,
        "meta_ra_of_asc_node": 178.0577,
        "meta_arg_of_pericenter": 115.4283,
        "meta_mean_anomaly": 245.1164,
        "meta_ephemeris_type": 0,
        "meta_classification_type": "U",
        "meta_norad_cat_id": 28521,
        "meta_element_set_no": 999,
        "meta_rev_at_epoch": 5916,
        "meta_bstar": 4.8465e-05,
        "meta_mean_motion_dot": 7.4e-07,
        "meta_mean_motion_ddot": 0,
        "tle_line1": "1 28521U 05002A   25355.47062066  .00000074  00000+0  48465-4 0  9997",
        "tle_line2": "2 28521  82.9488 178.0577 0041310 115.4283 245.1164 13.87904147 59165"
      },
      "geometry": {
        "type": "Point",
        "coordinates": [
          -167.17520301654733,
          64.35604968450487
        ]
      }
    },
    {
      "type": "Feature",
      "properties": {
        "norad_id": 32052,
        "name": "COSMOS 2429",
        "group": "musson",
        "lat": 30.515153899203728,
        "lon": 152.53885165925078,
        "alt_km": 999.8900083284661,
        "timestamp": "2025-12-21T16:47:55.008121+00:00",
        "meta_object_name": "COSMOS 2429",
        "meta_object_id": "2007-038A",
        "meta_epoch": "2025-12-21T10:50:20.528736",
        "meta_mean_motion": 13.7515024,
        "meta_eccentricity": 0.0038742,
        "meta_inclination": 82.9806,
        "meta_ra_of_asc_node": 336.8861,
        "meta_arg_of_pericenter": 13.9449,
        "meta_mean_anomaly": 346.2768,
        "meta_ephemeris_type": 0,
        "meta_classification_type": "U",
        "meta_norad_cat_id": 32052,
        "meta_element_set_no": 999,
        "meta_rev_at_epoch": 91722,
        "meta_bstar": 3.5702e-05,
        "meta_mean_motion_dot": 5e-07,
        "meta_mean_motion_ddot": 0,
        "tle_line1": "1 32052U 07038A   25355.45162649  .00000050  00000+0  35702-4 0  9992",
        "tle_line2": "2 32052  82.9806 336.8861 0038742  13.9449 346.2768 13.75150240917221"
      },
      "geometry": {
        "type": "Point",
        "coordinates": [
          152.53885165925078,
          30.515153899203728
        ]
      }
    },
    {
      "type": "Feature",
      "properties": {
        "norad_id": 35635,
        "name": "COSMOS 2454",
        "group": "musson",
        "lat": -1.4168472877744438,
        "lon": -17.97219995392222,
        "alt_km": 941.7615322657284,
        "timestamp": "2025-12-21T16:47:55.008132+00:00",
        "meta_object_name": "COSMOS 2454",
        "meta_object_id": "2009-039A",
        "meta_epoch": "2025-12-21T12:45:18.930240",
        "meta_mean_motion": 13.8992965,
        "meta_eccentricity": 0.0020179,
        "meta_inclination": 82.9557,
        "meta_ra_of_asc_node": 161.9803,
        "meta_arg_of_pericenter": 50.1646,
        "meta_mean_anomaly": 8.4587,
        "meta_ephemeris_type": 0,
        "meta_classification_type": "U",
        "meta_norad_cat_id": 35635,
        "meta_element_set_no": 999,
        "meta_rev_at_epoch": 83272,
        "meta_bstar": 3.08e-05,
        "meta_mean_motion_dot": 5.4e-07,
        "meta_mean_motion_ddot": 0,
        "tle_line1": "1 35635U 09039A   25355.53146910  .00000054  00000+0  30800-4 0  9995",
        "tle_line2": "2 35635  82.9557 161.9803 0020179  50.1646   8.4587 13.89929650832725"
      },
      "geometry": {
        "type": "Point",
        "coordinates": [
          -17.97219995392222,
          -1.4168472877744438
        ]
      }
    },
    {
      "type": "Feature",
      "properties": {
        "norad_id": 36519,
        "name": "COSMOS 2463",
        "group": "musson",
        "lat": -7.152617826796787,
        "lon": 19.23938896613408,
        "alt_km": 997.6219444502358,
        "timestamp": "2025-12-21T16:47:55.008142+00:00",
        "meta_object_name": "COSMOS 2463",
        "meta_object_id": "2010-017A",
        "meta_epoch": "2025-12-21T12:08:15.115200",
        "meta_mean_motion": 13.71649866,
        "meta_eccentricity": 0.0034757,
        "meta_inclination": 82.9604,
        "meta_ra_of_asc_node": 20.2705,
        "meta_arg_of_pericenter": 262.8285,
        "meta_mean_anomaly": 211.2151,
        "meta_ephemeris_type": 0,
        "meta_classification_type": "U",
        "meta_norad_cat_id": 36519,
        "meta_element_set_no": 999,
        "meta_rev_at_epoch": 78357,
        "meta_bstar": 4.0002e-05,
        "meta_mean_motion_dot": 5.1e-07,
        "meta_mean_motion_ddot": 0,
        "tle_line1": "1 36519U 10017A   25355.50573050  .00000051  00000+0  40002-4 0  9993",
        "tle_line2": "2 36519  82.9604  20.2705 0034757 262.8285 211.2151 13.71649866783574"
      },
      "geometry": {
        "type": "Point",
        "coordinates": [
          19.23938896613408,
          -7.152617826796787
        ]
      }
    }
  ]
}